CCSDS_OMM_VERS = 2.0
CREATION_DATE  = 
ORIGINATOR     = 

OBJECT_NAME    = STARLINK-36193
OBJECT_ID      = 2025-298AA
CENTER_NAME    = EARTH
REF_FRAME      = TEME
TIME_SYSTEM    = UTC
MEAN_ELEMENT_THEORY = SGP/SGP4

EPOCH          = 2026-01-08T04:09:32.250816
MEAN_MOTION    = 15.42740944
ECCENTRICITY   = .00033807
INCLINATION    = 70.0005
RA_OF_ASC_NODE = 176.2271
ARG_OF_PERICENTER = 274.2559
MEAN_ANOMALY   = 85.8237

EPHEMERIS_TYPE = 0
CLASSIFICATION_TYPE = U
NORAD_CAT_ID   = 67099
ELEMENT_SET_NO = 999
REV_AT_EPOCH   = 392
BSTAR          = .12112688E-2
MEAN_MOTION_DOT = .53315E-3
MEAN_MOTION_DDOT = 0

CCSDS_OMM_VERS = 2.0
CREATION_DATE  = 
ORIGINATOR     = 

OBJECT_NAME    = STARLINK-36215
OBJECT_ID      = 2025-298AB
CENTER_NAME    = EARTH
REF_FRAME      = TEME
TIME_SYSTEM    = UTC
MEAN_ELEMENT_THEORY = SGP/SGP4

EPOCH          = 2026-01-08T03:59:15.291744
MEAN_MOTION    = 15.52564211
ECCENTRICITY   = .0002237
INCLINATION    = 70.0004
RA_OF_ASC_NODE = 175.7881
ARG_OF_PERICENTER = 284.0176
MEAN_ANOMALY   = 76.0762

EPHEMERIS_TYPE = 0
CLASSIFICATION_TYPE = U
NORAD_CAT_ID   = 67100
ELEMENT_SET_NO = 999
REV_AT_EPOCH   = 393
BSTAR          = .17110218E-2
MEAN_MOTION_DOT = .106683E-2
MEAN_MOTION_DDOT = 0

CCSDS_OMM_VERS = 2.0
CREATION_DATE  = 
ORIGINATOR     = 

OBJECT_NAME    = STARLINK-36200
OBJECT_ID      = 2025-298AC
CENTER_NAME    = EARTH
REF_FRAME      = TEME
TIME_SYSTEM    = UTC
MEAN_ELEMENT_THEORY = SGP/SGP4

EPOCH          = 2026-01-08T06:00:02.999808
MEAN_MOTION    = 15.42646947
ECCENTRICITY   = .00034595
INCLINATION    = 70.0002
RA_OF_ASC_NODE = 175.6596
ARG_OF_PERICENTER = 268.8503
MEAN_ANOMALY   = 111.3683

EPHEMERIS_TYPE = 0
CLASSIFICATION_TYPE = U
NORAD_CAT_ID   = 67101
ELEMENT_SET_NO = 999
REV_AT_EPOCH   = 523
BSTAR          = .22770189E-2
MEAN_MOTION_DOT = .100658E-2
MEAN_MOTION_DDOT = 0

CCSDS_OMM_VERS = 2.0
CREATION_DATE  = 
ORIGINATOR     = 

OBJECT_NAME    = STARLINK-36255
OBJECT_ID      = 2025-299A
CENTER_NAME    = EARTH
REF_FRAME      = TEME
TIME_SYSTEM    = UTC
MEAN_ELEMENT_THEORY = SGP/SGP4

EPOCH          = 2026-01-08T00:00:02.999808
MEAN_MOTION    = 15.40683032
ECCENTRICITY   = .00017941
INCLINATION    = 43.0007
RA_OF_ASC_NODE = 158.7354
ARG_OF_PERICENTER = 279.8440
MEAN_ANOMALY   = 84.1592

EPHEMERIS_TYPE = 0
CLASSIFICATION_TYPE = U
NORAD_CAT_ID   = 67102
ELEMENT_SET_NO = 999
REV_AT_EPOCH   = 502
BSTAR          = .65870179E-3
MEAN_MOTION_DOT = .27295E-3
MEAN_MOTION_DDOT = 0

CCSDS_OMM_VERS = 2.0
CREATION_DATE  = 
ORIGINATOR     = 

OBJECT_NAME    = STARLINK-36256
OBJECT_ID      = 2025-299B
CENTER_NAME    = EARTH
REF_FRAME      = TEME
TIME_SYSTEM    = UTC
MEAN_ELEMENT_THEORY = SGP/SGP4

EPOCH          = 2026-01-08T06:00:02.999808
MEAN_MOTION    = 15.40653785
ECCENTRICITY   = .00016779
INCLINATION    = 43.0007
RA_OF_ASC_NODE = 157.2338
ARG_OF_PERICENTER = 273.6891
MEAN_ANOMALY   = 63.4806

EPHEMERIS_TYPE = 0
CLASSIFICATION_TYPE = U
NORAD_CAT_ID   = 67103
ELEMENT_SET_NO = 999
REV_AT_EPOCH   = 506
BSTAR          = .16962312E-2
MEAN_MOTION_DOT = .71106E-3
MEAN_MOTION_DDOT = 0

CCSDS_OMM_VERS = 2.0
CREATION_DATE  = 
ORIGINATOR     = 

OBJECT_NAME    = STARLINK-36258
OBJECT_ID      = 2025-299C
CENTER_NAME    = EARTH
REF_FRAME      = TEME
TIME_SYSTEM    = UTC
MEAN_ELEMENT_THEORY = SGP/SGP4

EPOCH          = 2026-01-07T17:10:04.107648
MEAN_MOTION    = 15.50602192
ECCENTRICITY   = .00015772
INCLINATION    = 42.9999
RA_OF_ASC_NODE = 160.0406
ARG_OF_PERICENTER = 270.5799
MEAN_ANOMALY   = 89.4881

EPHEMERIS_TYPE = 0
CLASSIFICATION_TYPE = U
NORAD_CAT_ID   = 67104
ELEMENT_SET_NO = 999
REV_AT_EPOCH   = 371
BSTAR          = .16844405E-2
MEAN_MOTION_DOT = .99828E-3
MEAN_MOTION_DDOT = 0

CCSDS_OMM_VERS = 2.0
CREATION_DATE  = 
ORIGINATOR     = 

OBJECT_NAME    = STARLINK-36261
OBJECT_ID      = 2025-299D
CENTER_NAME    = EARTH
REF_FRAME      = TEME
TIME_SYSTEM    = UTC
MEAN_ELEMENT_THEORY = SGP/SGP4

EPOCH          = 2026-01-08T06:00:02.999808
MEAN_MOTION    = 15.40637150
ECCENTRICITY   = .00016447
INCLINATION    = 43.0006
RA_OF_ASC_NODE = 157.2646
ARG_OF_PERICENTER = 269.7179
MEAN_ANOMALY   = 55.0450

EPHEMERIS_TYPE = 0
CLASSIFICATION_TYPE = U
NORAD_CAT_ID   = 67105
ELEMENT_SET_NO = 999
REV_AT_EPOCH   = 506
BSTAR          = .16467507E-2
MEAN_MOTION_DOT = .68966E-3
MEAN_MOTION_DDOT = 0

CCSDS_OMM_VERS = 2.0
CREATION_DATE  = 
ORIGINATOR     = 

OBJECT_NAME    = STARLINK-36259
OBJECT_ID      = 2025-299E
CENTER_NAME    = EARTH
REF_FRAME      = TEME
TIME_SYSTEM    = UTC
MEAN_ELEMENT_THEORY = SGP/SGP4

EPOCH          = 2026-01-08T06:00:02.999808
MEAN_MOTION    = 15.40655003
ECCENTRICITY   = .00019208
INCLINATION    = 43.0002
RA_OF_ASC_NODE = 157.0220
ARG_OF_PERICENTER = 281.0082
MEAN_ANOMALY   = 143.2483

EPHEMERIS_TYPE = 0
CLASSIFICATION_TYPE = U
NORAD_CAT_ID   = 67106
ELEMENT_SET_NO = 999
REV_AT_EPOCH   = 506
BSTAR          = .14567448E-2
MEAN_MOTION_DOT = .60946E-3
MEAN_MOTION_DDOT = 0

CCSDS_OMM_VERS = 2.0
CREATION_DATE  = 
ORIGINATOR     = 

OBJECT_NAME    = STARLINK-36196
OBJECT_ID      = 2025-299F
CENTER_NAME    = EARTH
REF_FRAME      = TEME
TIME_SYSTEM    = UTC
MEAN_ELEMENT_THEORY = SGP/SGP4

EPOCH          = 2026-01-07T17:09:03.918816
MEAN_MOTION    = 15.50654455
ECCENTRICITY   = .00019184
INCLINATION    = 43.0000
RA_OF_ASC_NODE = 160.0353
ARG_OF_PERICENTER = 268.6018
MEAN_ANOMALY   = 91.4623

EPHEMERIS_TYPE = 0
CLASSIFICATION_TYPE = U
NORAD_CAT_ID   = 67107
ELEMENT_SET_NO = 999
REV_AT_EPOCH   = 371
BSTAR          = .15878135E-2
MEAN_MOTION_DOT = .94191E-3
MEAN_MOTION_DDOT = 0

CCSDS_OMM_VERS = 2.0
CREATION_DATE  = 
ORIGINATOR     = 

OBJECT_NAME    = STARLINK-36208
OBJECT_ID      = 2025-299G
CENTER_NAME    = EARTH
REF_FRAME      = TEME
TIME_SYSTEM    = UTC
MEAN_ELEMENT_THEORY = SGP/SGP4

EPOCH          = 2026-01-07T17:08:05.575488
MEAN_MOTION    = 15.50617488
ECCENTRICITY   = .00014352
INCLINATION    = 42.9999
RA_OF_ASC_NODE = 160.0305
ARG_OF_PERICENTER = 271.8961
MEAN_ANOMALY   = 88.1735

EPHEMERIS_TYPE = 0
CLASSIFICATION_TYPE = U
NORAD_CAT_ID   = 67108
ELEMENT_SET_NO = 999
REV_AT_EPOCH   = 371
BSTAR          = .10994651E-2
MEAN_MOTION_DOT = .64783E-3
MEAN_MOTION_DDOT = 0

CCSDS_OMM_VERS = 2.0
CREATION_DATE  = 
ORIGINATOR     = 

OBJECT_NAME    = STARLINK-35764
OBJECT_ID      = 2025-299H
CENTER_NAME    = EARTH
REF_FRAME      = TEME
TIME_SYSTEM    = UTC
MEAN_ELEMENT_THEORY = SGP/SGP4

EPOCH          = 2026-01-08T06:00:02.999808
MEAN_MOTION    = 15.40632147
ECCENTRICITY   = .00015682
INCLINATION    = 43.0004
RA_OF_ASC_NODE = 157.1438
ARG_OF_PERICENTER = 259.4542
MEAN_ANOMALY   = 115.0719

EPHEMERIS_TYPE = 0
CLASSIFICATION_TYPE = U
NORAD_CAT_ID   = 67109
ELEMENT_SET_NO = 999
REV_AT_EPOCH   = 496
BSTAR          = .21884835E-2
MEAN_MOTION_DOT = .92017E-3
MEAN_MOTION_DDOT = 0

CCSDS_OMM_VERS = 2.0
CREATION_DATE  = 
ORIGINATOR     = 

OBJECT_NAME    = STARLINK-35781
OBJECT_ID      = 2025-299J
CENTER_NAME    = EARTH
REF_FRAME      = TEME
TIME_SYSTEM    = UTC
MEAN_ELEMENT_THEORY = SGP/SGP4

EPOCH          = 2026-01-07T09:23:19.023360
MEAN_MOTION    = 15.49882893
ECCENTRICITY   = .0002324
INCLINATION    = 42.9989
RA_OF_ASC_NODE = 161.9098
ARG_OF_PERICENTER = 326.7971
MEAN_ANOMALY   = 33.2743

EPHEMERIS_TYPE = 0
CLASSIFICATION_TYPE = U
NORAD_CAT_ID   = 67110
ELEMENT_SET_NO = 999
REV_AT_EPOCH   = 366
BSTAR          = .30968805E-3
MEAN_MOTION_DOT = .17425E-3
MEAN_MOTION_DDOT = 0

