STARLINK-36193          
1 67099U 25298AA  26008.17328994  .00053315  00000+0  12113-2 0  9992
2 67099  70.0005 176.2271 0003380 274.2559  85.8237 15.42740944  3926
STARLINK-36215          
1 67100U 25298AB  26008.16614921  .00106683  00000+0  17110-2 0  9991
2 67100  70.0004 175.7881 0002237 284.0176  76.0762 15.52564211  3931
STARLINK-36200          
1 67101U 25298AC  26008.25003472  .00100658  00000+0  22770-2 0  9999
2 67101  70.0002 175.6596 0003459 268.8503 111.3683 15.42646947  5239
STARLINK-36255          
1 67102U 25299A   26008.00003472  .00027295  00000+0  65870-3 0  9998
2 67102  43.0007 158.7354 0001794 279.8440  84.1592 15.40683032  5028
STARLINK-36256          
1 67103U 25299B   26008.25003472  .00071106  00000+0  16962-2 0  9993
2 67103  43.0007 157.2338 0001677 273.6891  63.4806 15.40653785  5061
STARLINK-36258          
1 67104U 25299C   26007.71532532  .00099828  00000+0  16844-2 0  9998
2 67104  42.9999 160.0406 0001577 270.5799  89.4881 15.50602192  3718
STARLINK-36261          
1 67105U 25299D   26008.25003472  .00068966  00000+0  16468-2 0  9996
2 67105  43.0006 157.2646 0001644 269.7179  55.0450 15.40637150  5063
STARLINK-36259          
1 67106U 25299E   26008.25003472  .00060946  00000+0  14567-2 0  9995
2 67106  43.0002 157.0220 0001920 281.0082 143.2483 15.40655003  5066
STARLINK-36196          
1 67107U 25299F   26007.71462869  .00094191  00000+0  15878-2 0  9990
2 67107  43.0000 160.0353 0001918 268.6018  91.4623 15.50654455  3714
STARLINK-36208          
1 67108U 25299G   26007.71395342  .00064783  00000+0  10995-2 0  9991
2 67108  42.9999 160.0305 0001435 271.8961  88.1735 15.50617488  3716
STARLINK-35764          
1 67109U 25299H   26008.25003472  .00092017  00000+0  21885-2 0  9993
2 67109  43.0004 157.1438 0001568 259.4542 115.0719 15.40632147  4962
STARLINK-35781          
1 67110U 25299J   26007.39119240  .00017425  00000+0  30969-3 0  9994
2 67110  42.9989 161.9098 0002324 326.7971  33.2743 15.49882893  3662
